NORAD_CAT_ID,OBJECT_NAME,OBJECT_TYPE,EPOCH,MEAN_MOTION,ECCENTRICITY,INCLINATION,RA_OF_ASC_NODE,ARG_OF_PERICENTER,MEAN_ANOMALY,BSTAR,MEAN_MOTION_DOT,MEAN_MOTION_DDOT,TLE_LINE0,TLE_LINE1,TLE_LINE2,SEMIMAJOR_AXIS,PERIOD,APOGEE,PERIGEE,DECAYED
50200.0,STARLINK-3235,PAYLOAD,2023-06-04 18:48:29,15.08836085,0.0001167,53.2174,88.283,91.0285,269.0841,7.1066e-05,8.43e-06,0.0,0 STARLINK-3235,1 50200U 21125AW  23155.78367545  .00000843  00000-0  71066-4 0  9998,2 50200  53.2174  88.2830 0001167  91.0285 269.0841 15.08836085 84433,6917.892,95.438,540.565,538.95,0.0
50200.0,STARLINK-3235,PAYLOAD,2023-06-05 04:20:47,15.08844709,0.0001173,53.2173,86.4986,90.9601,269.1525,9.29e-05,1.191e-05,0.0,0 STARLINK-3235,1 50200U 21125AW  23156.18110995  .00001191  00000-0  92900-4 0  9995,2 50200  53.2173  86.4986 0001173  90.9601 269.1525 15.08844709 84006,6917.866,95.437,540.542,538.92,0.0
50200.0,STARLINK-3235,PAYLOAD,2023-06-05 12:17:43,15.08841467,0.0001179,53.2174,85.011,87.0925,273.0202,1.9376e-05,2.1e-07,0.0,0 STARLINK-3235,1 50200U 21125AW  23156.51231363  .00000021  00000-0  19376-4 0  9992,2 50200  53.2174  85.0110 0001179  87.0925 273.0202 15.08841467 84546,6917.876,95.437,540.557,538.925,0.0
50200.0,STARLINK-3235,PAYLOAD,2023-06-05 18:39:16,15.0883795,0.0001234,53.2172,83.8223,89.9091,270.2043,-1.8111e-06,-3.17e-06,0.0,0 STARLINK-3235,1 50200U 21125AW  23156.77727844 -.00000317  00000-0 -18111-5 0  9991,2 50200  53.2172  83.8223 0001234  89.9091 270.2043 15.08837950 84096,6917.887,95.438,540.605,538.898,0.0
50200.0,STARLINK-3235,PAYLOAD,2023-06-06 04:11:35,15.08839281,0.0001236,53.2174,82.0379,87.633,272.4803,3.5908e-05,2.84e-06,0.0,0 STARLINK-3235,1 50200U 21125AW  23157.17471699  .00000284  00000-0  35908-4 0  9993,2 50200  53.2174  82.0379 0001236  87.6330 272.4803 15.08839281 84642,6917.883,95.438,540.603,538.893,0.0
50200.0,STARLINK-3235,PAYLOAD,2023-06-06 18:30:03,15.08837908,0.0001263,53.2174,79.3618,81.8899,278.2236,2.0903e-05,4.5e-07,0.0,0 STARLINK-3235,1 50200U 21125AW  23157.77087913  .00000045  00000-0  20903-4 0  9995,2 50200  53.2174  79.3618 0001263  81.8899 278.2236 15.08837908 84731,6917.887,95.438,540.626,538.878,0.0
50200.0,STARLINK-3235,PAYLOAD,2023-06-07 00:51:36,15.08839608,0.0001297,53.2174,78.1723,85.4629,274.6511,3.4372e-05,2.59e-06,0.0,0 STARLINK-3235,1 50200U 21125AW  23158.03583770  .00000259  00000-0  34372-4 0  9999,2 50200  53.2174  78.1723 0001297  85.4629 274.6511 15.08839608 84288,6917.882,95.438,540.644,538.849,0.0
50200.0,STARLINK-3235,PAYLOAD,2023-06-07 13:34:41,15.08843948,0.0001146,53.2176,75.7934,93.4199,266.6924,-1.9019e-05,-5.91e-06,0.0,0 STARLINK-3235,1 50200U 21125AW  23158.56575508 -.00000591  00000-0 -19019-4 0  9999,2 50200  53.2176  75.7934 0001146  93.4199 266.6924 15.08843948 84855,6917.868,95.437,540.526,538.941,0.0
50200.0,STARLINK-3235,PAYLOAD,2023-06-07 19:56:14,15.08836814,0.0001327,53.2177,74.6043,82.7159,277.3983,4.7599e-05,4.7e-06,0.0,0 STARLINK-3235,1 50200U 21125AW  23158.83071867  .00000470  00000-0  47599-4 0  9996,2 50200  53.2177  74.6043 0001327  82.7159 277.3983 15.08836814 84895,6917.89,95.438,540.673,538.837,0.0
50200.0,STARLINK-3235,PAYLOAD,2023-06-08 03:53:09,15.08846361,0.0001269,53.2179,73.1162,92.8182,267.2955,8.7473e-05,1.105e-05,0.0,0 STARLINK-3235,1 50200U 21125AW  23159.16191076  .00001105  00000-0  87473-4 0  9999,2 50200  53.2179  73.1162 0001269  92.8182 267.2955 15.08846361 84453,6917.861,95.437,540.604,538.848,0.0
50200.0,STARLINK-3235,PAYLOAD,2023-06-08 22:57:47,15.08835832,0.0001399,53.2177,69.5479,93.0629,267.0524,1.2603e-05,-8.7e-07,0.0,0 STARLINK-3235,1 50200U 21125AW  23159.95680036 -.00000087  00000-0  12603-4 0  9997,2 50200  53.2177  69.5479 0001399  93.0629 267.0524 15.08835832 84578,6917.893,95.438,540.726,538.79,0.0
50200.0,STARLINK-3235,PAYLOAD,2023-06-09 03:43:56,15.08842024,0.0001392,53.2179,68.6541,109.5168,250.5974,8.502e-06,-1.53e-06,0.0,0 STARLINK-3235,1 50200U 21125AW  23160.15551587 -.00000153  00000-0  85020-5 0  9997,2 50200  53.2179  68.6541 0001392 109.5168 250.5974 15.08842024 84605,6917.874,95.437,540.702,538.776,0.0
50200.0,STARLINK-3235,PAYLOAD,2023-06-10 03:34:43,15.08844345,0.0001258,53.2182,64.1958,95.1377,264.9758,5.7509e-05,6.28e-06,0.0,0 STARLINK-3235,1 50200U 21125AW  23161.14911412  .00000628  00000-0  57509-4 0  9990,2 50200  53.2182  64.1958 0001258  95.1377 264.9758 15.08844345 85243,6917.867,95.437,540.602,538.862,0.0
50200.0,STARLINK-3235,PAYLOAD,2023-06-10 17:53:12,15.08833827,0.0001214,53.2179,61.5201,92.2354,267.8777,-3.6529e-05,-8.69e-06,0.0,0 STARLINK-3235,1 50200U 21125AW  23161.74528529 -.00000869  00000-0 -36529-4 0  9997,2 50200  53.2179  61.5201 0001214  92.2354 267.8777 15.08833827 84847,6917.899,95.438,540.604,538.924,0.0
50200.0,STARLINK-3235,PAYLOAD,2023-06-11 00:14:44,15.08839664,0.0001363,53.2186,60.3279,110.1969,249.917,1.8004e-05,-1e-08,0.0,0 STARLINK-3235,1 50200U 21125AW  23162.01023877 -.00000001  00000-0  18004-4 0  9999,2 50200  53.2186  60.3279 0001363 110.1969 249.9170 15.08839664 84881,6917.881,95.438,540.689,538.804,0.0
50200.0,STARLINK-3235,PAYLOAD,2023-06-11 09:47:03,15.08840066,0.0001239,53.2181,58.5445,109.2762,250.8364,2.4594e-05,1.04e-06,0.0,0 STARLINK-3235,1 50200U 21125AW  23162.40767822  .00000104  00000-0  24594-4 0  9991,2 50200  53.2181  58.5445 0001239 109.2762 250.8364 15.08840066 85438,6917.88,95.438,540.602,538.888,0.0
50200.0,STARLINK-3235,PAYLOAD,2023-06-11 17:43:59,15.08796127,0.0001414,53.2188,57.0599,98.3221,261.7931,0.00043088,6.568e-05,0.0,0 STARLINK-3235,1 50200U 21125AW  23162.73888716  .00006568  00000-0  43088-3 0  9991,2 50200  53.2188  57.0599 0001414  98.3221 261.7931 15.08796127 85486,6918.014,95.44,540.858,538.901,0.0
50200.0,STARLINK-3235,PAYLOAD,2023-06-12 01:40:55,15.08840578,0.0001169,53.2181,55.5736,87.2083,272.9043,-1.9074e-05,-5.91e-06,0.0,0 STARLINK-3235,1 50200U 21125AW  23163.07008207 -.00000591  00000-0 -19074-4 0  9999,2 50200  53.2181  55.5736 0001169  87.2083 272.9043 15.08840578 85045,6917.879,95.438,540.552,538.935,0.0
50200.0,STARLINK-3235,PAYLOAD,2023-06-12 09:37:51,15.08837248,0.0001117,53.2185,54.0869,87.4994,272.6126,-5.8514e-05,-1.219e-05,0.0,0 STARLINK-3235,1 50200U 21125AW  23163.40128561 -.00001219  00000-0 -58514-4 0  9992,2 50200  53.2185  54.0869 0001117  87.4994 272.6126 15.08837248 85584,6917.889,95.438,540.527,538.981,0.0
50200.0,STARLINK-3235,PAYLOAD,2023-06-12 14:24:01,15.08812573,0.0001233,53.2194,53.1956,91.4075,268.7058,0.00025447,3.761e-05,0.0,0 STARLINK-3235,1 50200U 21125AW  23163.60001480  .00003761  00000-0  25447-3 0  9994,2 50200  53.2194  53.1956 0001233  91.4075 268.7058 15.08812573 85129,6917.964,95.439,540.682,538.976,0.0
50200.0,STARLINK-3235,PAYLOAD,2023-06-13 01:31:42,15.08839808,0.0001226,53.2193,51.1147,97.7166,262.3966,2.8564e-05,1.67e-06,0.0,0 STARLINK-3235,1 50200U 21125AW  23164.06368452  .00000167  00000-0  28564-4 0  9991,2 50200  53.2193  51.1147 0001226  97.7166 262.3966 15.08839808 85195,6917.881,95.438,540.594,538.898,0.0
50200.0,STARLINK-3235,PAYLOAD,2023-06-13 19:00:57,15.08819719,6.63e-05,53.2186,47.8428,104.1908,255.9158,0.00025594,3.786e-05,0.0,0 STARLINK-3235,1 50200U 21125AW  23164.79232934  .00003786  00000-0  25594-3 0  9995,2 50200  53.2186  47.8428 0000663 104.1908 255.9158 15.08819719 85305,6917.942,95.439,540.266,539.349,0.0
50200.0,STARLINK-3235,PAYLOAD,2023-06-14 01:22:29,15.08842238,0.000121,53.2184,46.6523,83.801,276.312,8.2266e-05,1.022e-05,0.0,0 STARLINK-3235,1 50200U 21125AW  23165.05728255  .00001022  00000-0  82266-4 0  9992,2 50200  53.2184  46.6523 0001210  83.8010 276.3120 15.08842238 85344,6917.874,95.437,540.576,538.901,0.0
50200.0,STARLINK-3235,PAYLOAD,2023-06-14 15:40:57,15.0883554,0.0001227,53.2185,43.9759,89.4308,270.6825,6.6521e-05,7.71e-06,0.0,0 STARLINK-3235,1 50200U 21125AW  23165.65344770  .00000771  00000-0  66521-4 0  9990,2 50200  53.2185  43.9759 0001227  89.4308 270.6825 15.08835540 85433,6917.894,95.438,540.608,538.91,0.0
50200.0,STARLINK-3235,PAYLOAD,2023-06-15 01:13:16,15.08839774,0.0001233,53.2183,42.1924,84.3654,275.7479,6.2163e-05,7.02e-06,0.0,0 STARLINK-3235,1 50200U 21125AW  23166.05088543  .00000702  00000-0  62163-4 0  9990,2 50200  53.2183  42.1924 0001233  84.3654 275.7479 15.08839774 85985,6917.881,95.438,540.599,538.893,0.0
50200.0,STARLINK-3235,PAYLOAD,2023-06-15 21:53:17,15.08841973,0.0001334,53.2179,38.3287,74.0777,286.0362,-5.753e-06,-3.79e-06,0.0,0 STARLINK-3235,1 50200U 21125AW  23166.91200707 -.00000379  00000-0 -57530-5 0  9998,2 50200  53.2179  38.3287 0001334  74.0777 286.0362 15.08841973 85624,6917.874,95.437,540.662,538.817,0.0
50200.0,STARLINK-3235,PAYLOAD,2023-06-16 09:00:58,15.08849338,0.0001326,53.2187,36.2468,81.7182,278.3961,3.1247e-05,2.1e-06,0.0,0 STARLINK-3235,1 50200U 21125AW  23167.37567944  .00000210  00000-0  31247-4 0  9996,2 50200  53.2187  36.2468 0001326  81.7182 278.3961 15.08849338 85696,6917.852,95.437,540.634,538.8,0.0
50200.0,STARLINK-3235,PAYLOAD,2023-06-16 18:33:17,15.08848089,0.0001308,53.2183,34.4606,94.4083,265.7059,8.0923e-05,1e-05,0.0,0 STARLINK-3235,1 50200U 21125AW  23167.77311654  .00001000  00000-0  80923-4 0  9998,2 50200  53.2183  34.4606 0001308  94.4083 265.7059 15.08848089 86249,6917.856,95.437,540.626,538.816,0.0
50200.0,STARLINK-3235,PAYLOAD,2023-06-17 00:54:49,15.08853223,0.000132,53.2188,33.27,102.5089,257.6051,0.00010773,1.428e-05,0.0,0 STARLINK-3235,1 50200U 21125AW  23168.03807045  .00001428  00000-0  10773-3 0  9991,2 50200  53.2188  33.2700 0001320 102.5089 257.6051 15.08853223 86289,6917.84,95.437,540.618,538.792,0.0
50200.0,STARLINK-3235,PAYLOAD,2023-06-17 15:13:19,15.088272,0.0001362,53.2186,30.5943,101.1903,258.9242,-0.00010997,-2.037e-05,0.0,0 STARLINK-3235,1 50200U 21125AW  23168.63425706 -.00002037  00000-0 -10997-3 0  9994,2 50200  53.2186  30.5943 0001362 101.1903 258.9242 15.08827200 85889,6917.92,95.438,540.727,538.842,0.0
